[{"CCSDS_OMM_VERS":"2.0","COMMENT":"GENERATED VIA SPACE-TRACK.ORG API","CREATION_DATE":"2020-12-03T03:02:41","ORIGINATOR":"18 SPCS","OBJECT_NAME":"STARLINK-1556","OBJECT_ID":"2020-055G","CENTER_NAME":"EARTH","REF_FRAME":"TEME","TIME_SYSTEM":"UTC","MEAN_ELEMENT_THEORY":"SGP4","EPOCH":"2020-12-02T20:48:10.338912","MEAN_MOTION":"15.05592000","ECCENTRICITY":"0.00022060","INCLINATION":"53.0021","RA_OF_ASC_NODE":"118.5046","ARG_OF_PERICENTER":"93.1009","MEAN_ANOMALY":"267.0231","EPHEMERIS_TYPE":"0","CLASSIFICATION_TYPE":"U","NORAD_CAT_ID":"46033","ELEMENT_SET_NO":"999","REV_AT_EPOCH":"1905","BSTAR":"0.00008318500000","MEAN_MOTION_DOT":"0.00000933","MEAN_MOTION_DDOT":"0.0000000000000","SEMIMAJOR_AXIS":"6927.826","PERIOD":"95.643","APOAPSIS":"551.219","PERIAPSIS":"548.162","OBJECT_TYPE":"PAYLOAD","RCS_SIZE":"LARGE","COUNTRY_CODE":"US","LAUNCH_DATE":"2020-08-07","SITE":"AFETR","DECAY_DATE":null,"FILE":"2896409","GP_ID":"166785658","TLE_LINE0":"0 STARLINK-1556","TLE_LINE1":"1 46033U 20055G   20337.86678633  .00000933  00000-0  83185-4 0  9994","TLE_LINE2":"2 46033  53.0021 118.5046 0002206  93.1009 267.0231 15.05592000 19059"},{"CCSDS_OMM_VERS":"2.0","COMMENT":"GENERATED VIA SPACE-TRACK.ORG API","CREATION_DATE":"2020-12-02T22:36:09","ORIGINATOR":"18 SPCS","OBJECT_NAME":"STARLINK-1527","OBJECT_ID":"2020-055X","CENTER_NAME":"EARTH","REF_FRAME":"TEME","TIME_SYSTEM":"UTC","MEAN_ELEMENT_THEORY":"SGP4","EPOCH":"2020-12-02T20:49:06.395232","MEAN_MOTION":"15.06196535","ECCENTRICITY":"0.00033910","INCLINATION":"53.0434","RA_OF_ASC_NODE":"108.4766","ARG_OF_PERICENTER":"123.3751","MEAN_ANOMALY":"236.7562","EPHEMERIS_TYPE":"0","CLASSIFICATION_TYPE":"U","NORAD_CAT_ID":"46048","ELEMENT_SET_NO":"999","REV_AT_EPOCH":"1870","BSTAR":"0.00531370000000","MEAN_MOTION_DOT":"0.00079329","MEAN_MOTION_DDOT":"0.0000000000000","SEMIMAJOR_AXIS":"6925.972","PERIOD":"95.605","APOAPSIS":"550.185","PERIAPSIS":"545.488","OBJECT_TYPE":"PAYLOAD","RCS_SIZE":"LARGE","COUNTRY_CODE":"US","LAUNCH_DATE":"2020-08-07","SITE":"AFETR","DECAY_DATE":null,"FILE":"2896312","GP_ID":"166764335","TLE_LINE0":"0 STARLINK-1527","TLE_LINE1":"1 46048U 20055X   20337.86743513  .00079329  00000-0  53137-2 0  9997","TLE_LINE2":"2 46048  53.0434 108.4766 0003391 123.3751 236.7562 15.06196535 18701"},{"CCSDS_OMM_VERS":"2.0","COMMENT":"GENERATED VIA SPACE-TRACK.ORG API","CREATION_DATE":"2020-12-03T03:02:41","ORIGINATOR":"18 SPCS","OBJECT_NAME":"STARLINK-1527","OBJECT_ID":"2020-055X","CENTER_NAME":"EARTH","REF_FRAME":"TEME","TIME_SYSTEM":"UTC","MEAN_ELEMENT_THEORY":"SGP4","EPOCH":"2020-12-02T20:49:06.395232","MEAN_MOTION":"15.06196535","ECCENTRICITY":"0.00033910","INCLINATION":"53.0434","RA_OF_ASC_NODE":"108.4766","ARG_OF_PERICENTER":"123.3751","MEAN_ANOMALY":"236.7562","EPHEMERIS_TYPE":"0","CLASSIFICATION_TYPE":"U","NORAD_CAT_ID":"46048","ELEMENT_SET_NO":"999","REV_AT_EPOCH":"1919","BSTAR":"0.00531370000000","MEAN_MOTION_DOT":"0.00079329","MEAN_MOTION_DDOT":"0.0000000000000","SEMIMAJOR_AXIS":"6925.972","PERIOD":"95.605","APOAPSIS":"550.185","PERIAPSIS":"545.488","OBJECT_TYPE":"PAYLOAD","RCS_SIZE":"LARGE","COUNTRY_CODE":"US","LAUNCH_DATE":"2020-08-07","SITE":"AFETR","DECAY_DATE":null,"FILE":"2896409","GP_ID":"166787169","TLE_LINE0":"0 STARLINK-1527","TLE_LINE1":"1 46048U 20055X   20337.86743513  .00079329  00000-0  53137-2 0  9997","TLE_LINE2":"2 46048  53.0434 108.4766 0003391 123.3751 236.7562 15.06196535 19195"},{"CCSDS_OMM_VERS":"2.0","COMMENT":"GENERATED VIA SPACE-TRACK.ORG API","CREATION_DATE":"2020-12-02T22:36:09","ORIGINATOR":"18 SPCS","OBJECT_NAME":"STARLINK-1524","OBJECT_ID":"2020-055W","CENTER_NAME":"EARTH","REF_FRAME":"TEME","TIME_SYSTEM":"UTC","MEAN_ELEMENT_THEORY":"SGP4","EPOCH":"2020-12-02T20:54:23.584320","MEAN_MOTION":"15.06408415","ECCENTRICITY":"0.00015480","INCLINATION":"53.0315","RA_OF_ASC_NODE":"108.4502","ARG_OF_PERICENTER":"95.9802","MEAN_ANOMALY":"264.1363","EPHEMERIS_TYPE":"0","CLASSIFICATION_TYPE":"U","NORAD_CAT_ID":"46047","ELEMENT_SET_NO":"999","REV_AT_EPOCH":"1870","BSTAR":"0.00012971000000","MEAN_MOTION_DOT":"0.00001651","MEAN_MOTION_DDOT":"0.0000000000000","SEMIMAJOR_AXIS":"6925.322","PERIOD":"95.591","APOAPSIS":"548.259","PERIAPSIS":"546.115","OBJECT_TYPE":"PAYLOAD","RCS_SIZE":"LARGE","COUNTRY_CODE":"US","LAUNCH_DATE":"2020-08-07","SITE":"AFETR","DECAY_DATE":null,"FILE":"2896312","GP_ID":"166763858","TLE_LINE0":"0 STARLINK-1524","TLE_LINE1":"1 46047U 20055W   20337.87110630  .00001651  00000-0  12971-3 0  9990","TLE_LINE2":"2 46047  53.0315 108.4502 0001548  95.9802 264.1363 15.06408415 18706"},{"CCSDS_OMM_VERS":"2.0","COMMENT":"GENERATED VIA SPACE-TRACK.ORG API","CREATION_DATE":"2020-12-03T03:02:41","ORIGINATOR":"18 SPCS","OBJECT_NAME":"STARLINK-1524","OBJECT_ID":"2020-055W","CENTER_NAME":"EARTH","REF_FRAME":"TEME","TIME_SYSTEM":"UTC","MEAN_ELEMENT_THEORY":"SGP4","EPOCH":"2020-12-02T20:54:23.584320","MEAN_MOTION":"15.06408415","ECCENTRICITY":"0.00015480","INCLINATION":"53.0315","RA_OF_ASC_NODE":"108.4502","ARG_OF_PERICENTER":"95.9802","MEAN_ANOMALY":"264.1363","EPHEMERIS_TYPE":"0","CLASSIFICATION_TYPE":"U","NORAD_CAT_ID":"46047","ELEMENT_SET_NO":"999","REV_AT_EPOCH":"1921","BSTAR":"0.00012971000000","MEAN_MOTION_DOT":"0.00001651","MEAN_MOTION_DDOT":"0.0000000000000","SEMIMAJOR_AXIS":"6925.322","PERIOD":"95.591","APOAPSIS":"548.259","PERIAPSIS":"546.115","OBJECT_TYPE":"PAYLOAD","RCS_SIZE":"LARGE","COUNTRY_CODE":"US","LAUNCH_DATE":"2020-08-07","SITE":"AFETR","DECAY_DATE":null,"FILE":"2896409","GP_ID":"166786643","TLE_LINE0":"0 STARLINK-1524","TLE_LINE1":"1 46047U 20055W   20337.87110630  .00001651  00000-0  12971-3 0  9990","TLE_LINE2":"2 46047  53.0315 108.4502 0001548  95.9802 264.1363 15.06408415 19213"},{"CCSDS_OMM_VERS":"2.0","COMMENT":"GENERATED VIA SPACE-TRACK.ORG API","CREATION_DATE":"2020-12-03T06:56:09","ORIGINATOR":"18 SPCS","OBJECT_NAME":"STARLINK-1558","OBJECT_ID":"2020-055J","CENTER_NAME":"EARTH","REF_FRAME":"TEME","TIME_SYSTEM":"UTC","MEAN_ELEMENT_THEORY":"SGP4","EPOCH":"2020-12-02T21:02:30.692832","MEAN_MOTION":"15.05584392","ECCENTRICITY":"0.00016310","INCLINATION":"53.0016","RA_OF_ASC_NODE":"118.4592","ARG_OF_PERICENTER":"77.7734","MEAN_ANOMALY":"282.3436","EPHEMERIS_TYPE":"0","CLASSIFICATION_TYPE":"U","NORAD_CAT_ID":"46035","ELEMENT_SET_NO":"999","REV_AT_EPOCH":"1856","BSTAR":"-0.00000642170000","MEAN_MOTION_DOT":"-0.00000373","MEAN_MOTION_DDOT":"0.0000000000000","SEMIMAJOR_AXIS":"6927.849","PERIOD":"95.643","APOAPSIS":"550.844","PERIAPSIS":"548.584","OBJECT_TYPE":"PAYLOAD","RCS_SIZE":"LARGE","COUNTRY_CODE":"US","LAUNCH_DATE":"2020-08-07","SITE":"AFETR","DECAY_DATE":null,"FILE":"2896552","GP_ID":"166790546","TLE_LINE0":"0 STARLINK-1558","TLE_LINE1":"1 46035U 20055J   20337.87674413 -.00000373  00000-0 -64217-5 0  9995","TLE_LINE2":"2 46035  53.0016 118.4592 0001631  77.7734 282.3436 15.05584392 18561"},{"CCSDS_OMM_VERS":"2.0","COMMENT":"GENERATED VIA SPACE-TRACK.ORG API","CREATION_DATE":"2020-12-03T20:15:29","ORIGINATOR":"18 SPCS","OBJECT_NAME":"STARLINK-1558","OBJECT_ID":"2020-055J","CENTER_NAME":"EARTH","REF_FRAME":"TEME","TIME_SYSTEM":"UTC","MEAN_ELEMENT_THEORY":"SGP4","EPOCH":"2020-12-02T21:02:30.692832","MEAN_MOTION":"15.05584392","ECCENTRICITY":"0.00016310","INCLINATION":"53.0016","RA_OF_ASC_NODE":"118.4592","ARG_OF_PERICENTER":"77.7734","MEAN_ANOMALY":"282.3436","EPHEMERIS_TYPE":"0","CLASSIFICATION_TYPE":"U","NORAD_CAT_ID":"46035","ELEMENT_SET_NO":"999","REV_AT_EPOCH":"1908","BSTAR":"-0.00000642170000","MEAN_MOTION_DOT":"-0.00000373","MEAN_MOTION_DDOT":"0.0000000000000","SEMIMAJOR_AXIS":"6927.849","PERIOD":"95.643","APOAPSIS":"550.844","PERIAPSIS":"548.584","OBJECT_TYPE":"PAYLOAD","RCS_SIZE":"LARGE","COUNTRY_CODE":"US","LAUNCH_DATE":"2020-08-07","SITE":"AFETR","DECAY_DATE":null,"FILE":"2896876","GP_ID":"166817999","TLE_LINE0":"0 STARLINK-1558","TLE_LINE1":"1 46035U 20055J   20337.87674413 -.00000373  00000-0 -64217-5 0  9995","TLE_LINE2":"2 46035  53.0016 118.4592 0001631  77.7734 282.3436 15.05584392 19089"},{"CCSDS_OMM_VERS":"2.0","COMMENT":"GENERATED VIA SPACE-TRACK.ORG API","CREATION_DATE":"2020-12-03T20:15:29","ORIGINATOR":"18 SPCS","OBJECT_NAME":"STARLINK-1569","OBJECT_ID":"2020-055N","CENTER_NAME":"EARTH","REF_FRAME":"TEME","TIME_SYSTEM":"UTC","MEAN_ELEMENT_THEORY":"SGP4","EPOCH":"2020-12-02T21:07:17.190048","MEAN_MOTION":"15.05587824","ECCENTRICITY":"0.00017510","INCLINATION":"53.0020","RA_OF_ASC_NODE":"118.4429","ARG_OF_PERICENTER":"92.1505","MEAN_ANOMALY":"267.9683","EPHEMERIS_TYPE":"0","CLASSIFICATION_TYPE":"U","NORAD_CAT_ID":"46039","ELEMENT_SET_NO":"999","REV_AT_EPOCH":"1907","BSTAR":"-0.00007421600000","MEAN_MOTION_DOT":"-0.00001361","MEAN_MOTION_DDOT":"0.0000000000000","SEMIMAJOR_AXIS":"6927.838","PERIOD":"95.643","APOAPSIS":"550.916","PERIAPSIS":"548.490","OBJECT_TYPE":"PAYLOAD","RCS_SIZE":"LARGE","COUNTRY_CODE":"US","LAUNCH_DATE":"2020-08-07","SITE":"AFETR","DECAY_DATE":null,"FILE":"2896876","GP_ID":"166818500","TLE_LINE0":"0 STARLINK-1569","TLE_LINE1":"1 46039U 20055N   20337.88006007 -.00001361  00000-0 -74216-4 0  9995","TLE_LINE2":"2 46039  53.0020 118.4429 0001751  92.1505 267.9683 15.05587824 19072"}]